{
"type": "FeatureCollection",
"crs": { "type": "name", "properties": { "name": "urn:ogc:def:crs:OGC:1.3:CRS84" } },
"features": [
{ "type": "Feature", "properties": { "cartodb_id": 11, "place_name": "Cincinnati", "initials": "TS", "unit": "Unit-5", "description": "" }, "geometry": { "type": "Point", "coordinates": [ -84.5125, 39.1015 ] } },
{ "type": "Feature", "properties": { "cartodb_id": 1, "place_name": "Southern Wisconsin", "initials": "p", "unit": "Unit-5", "description": "Prairie Wedge- Southern Wisconsin along with Illinois and western Indiana margin are all a part of the prairie wedge. Early European settlers found openings and glades in the forest located throughout the area." }, "geometry": { "type": "Point", "coordinates": [ -89.869977, 43.708591 ] } },
{ "type": "Feature", "properties": { "cartodb_id": 2, "place_name": "Saskatchewan", "initials": "p", "unit": "Unit-5", "description": "Saskatchewan is one of three prairie provinces in Canada. This province is the lead producer of wheat out of the three provinces. Saskatchewan produces more wheat than Manitoba and Alberta combined. " }, "geometry": { "type": "Point", "coordinates": [ -105.926593, 54.588062 ] } },
{ "type": "Feature", "properties": { "cartodb_id": 3, "place_name": "Kansas", "initials": "p", "unit": "Unit-5", "description": "Kansas lies within what is deemed as Tornado Alley. The warm air from the Rocky Mountains transcends. As a result, the differences in temperature contribute toward the natural disaster." }, "geometry": { "type": "Point", "coordinates": [ -98.327818, 38.642763 ] } },
{ "type": "Feature", "properties": { "cartodb_id": 4, "place_name": "Llano Esacado, TX", "initials": "p", "unit": "Unit-5", "description": "The areas in the southwest region of the U.S account for the interior plains. The area is less varied and remains flat at about 500 ft above sea level." }, "geometry": { "type": "Point", "coordinates": [ -98.697, 30.6663 ] } },
{ "type": "Feature", "properties": { "cartodb_id": 5, "place_name": "Dakotas", "initials": "p", "unit": "Unit-5", "description": "Prior to the arrival of European settlers, Native American inhabited this region. Their trade was based in hunting. Most of the Native American communities settled near water because they could thrive long without water." }, "geometry": { "type": "Point", "coordinates": [ -70.561291, -33.473694 ] } },
{ "type": "Feature", "properties": { "cartodb_id": 6, "place_name": "Wisconsin", "initials": "BT", "unit": "Unit-5", "description": "Wisconsin on the Lake Michigan shores, grew fruit, located outside the cornbelt" }, "geometry": { "type": "Point", "coordinates": [ -89.72133, 44.899726 ] } },
{ "type": "Feature", "properties": { "cartodb_id": 7, "place_name": "Cook County", "initials": "BT", "unit": "Unit-5", "description": "which home to Chicago, is almost entirely filled by the city Chicago, yet it still has 8499 acres of farmland" }, "geometry": { "type": "Point", "coordinates": [ -87.4698, 41.3773 ] } },
{ "type": "Feature", "properties": { "cartodb_id": 8, "place_name": "Cincinnati", "initials": "BT", "unit": "Unit-5", "description": "point of flour mills, they are on the Ohio River; also known as \"Porkopolis\" because of pork production" }, "geometry": { "type": "Point", "coordinates": [ -84.5125, 39.1015 ] } },
{ "type": "Feature", "properties": { "cartodb_id": 9, "place_name": "Detroit", "initials": "BT", "unit": "Unit-5", "description": "grew as a military control point and focus for farm products based on location - crossing points between Ontario and Michigan" }, "geometry": { "type": "Point", "coordinates": [ -83.0567, 42.3487 ] } },
{ "type": "Feature", "properties": { "cartodb_id": 10, "place_name": "Southern Illinois and northern Missour", "initials": "BT", "unit": "Unit-5", "description": " harvested soybeans exceeded corn harvests" }, "geometry": { "type": "Point", "coordinates": [ -89.815868, 39.116169 ] } },
{ "type": "Feature", "properties": { "cartodb_id": 12, "place_name": "Chicago", "initials": "TS", "unit": "Unit-5", "description": "" }, "geometry": { "type": "Point", "coordinates": [ -87.6244, 41.8756 ] } },
{ "type": "Feature", "properties": { "cartodb_id": 13, "place_name": "Prairie Wedge", "initials": "TS", "unit": "Unit-5", "description": "" }, "geometry": { "type": "Point", "coordinates": [ -99.391275, 40.453449 ] } },
{ "type": "Feature", "properties": { "cartodb_id": 14, "place_name": "Edwards Plateau", "initials": "TS", "unit": "Unit-5", "description": "" }, "geometry": { "type": "Point", "coordinates": [ -97.578687, 30.458169 ] } },
{ "type": "Feature", "properties": { "cartodb_id": 15, "place_name": "Winnipeg", "initials": "TS", "unit": "Unit-5", "description": "" }, "geometry": { "type": "Point", "coordinates": [ -97.1667, 49.8833 ] } },
{ "type": "Feature", "properties": { "cartodb_id": 16, "place_name": "Detroit", "initials": "QN", "unit": "Unit-5", "description": "The city which long history of African American. People can come and visit some museums to know more about the history and enjoy the work of art." }, "geometry": { "type": "Point", "coordinates": [ -83.0567, 42.3487 ] } },
{ "type": "Feature", "properties": { "cartodb_id": 17, "place_name": "Branson, Missouri", "initials": "QN", "unit": "Unit-5", "description": "The music capital of the world." }, "geometry": { "type": "Point", "coordinates": [ -93.2171, 36.644 ] } },
{ "type": "Feature", "properties": { "cartodb_id": 18, "place_name": "Chicago", "initials": "QN", "unit": "Unit-5", "description": "also called \"Wind City\". Beautiful architectures, skyscrapers, etc." }, "geometry": { "type": "Point", "coordinates": [ -87.6244, 41.8756 ] } },
{ "type": "Feature", "properties": { "cartodb_id": 19, "place_name": "Erie, PA", "initials": "QN", "unit": "Unit-5", "description": "There are a lot of vineyard in this city. To be known for its wine production." }, "geometry": { "type": "Point", "coordinates": [ -80.0852, 42.1291 ] } },
{ "type": "Feature", "properties": { "cartodb_id": 20, "place_name": "Strawberry Point, IA", "initials": "QN", "unit": "Unit-5", "description": " Strawberry was planted outside of each house. There is world's largest strawberry statue (15-foot fiberglass statue)." }, "geometry": { "type": "Point", "coordinates": [ -91.5339, 42.6837 ] } },
{ "type": "Feature", "properties": { "cartodb_id": 21, "place_name": "Ohio River", "initials": "D", "unit": "Unit-5", "description": "" }, "geometry": { "type": "Point", "coordinates": [ 151.602951, -30.973434 ] } },
{ "type": "Feature", "properties": { "cartodb_id": 22, "place_name": "Cincinnati", "initials": "D", "unit": "Unit-5", "description": "" }, "geometry": { "type": "Point", "coordinates": [ -84.5125, 39.1015 ] } },
{ "type": "Feature", "properties": { "cartodb_id": 23, "place_name": "Badlands, South Dakota", "initials": "D", "unit": "Unit-5", "description": "" }, "geometry": { "type": "Point", "coordinates": [ -102.23656, 43.973073 ] } },
{ "type": "Feature", "properties": { "cartodb_id": 24, "place_name": "Sand Hills, Nebraska", "initials": "D", "unit": "Unit-5", "description": "" }, "geometry": { "type": "Point", "coordinates": [ -96.071405, 41.128812 ] } },
{ "type": "Feature", "properties": { "cartodb_id": 25, "place_name": "Manitoba Lowlands", "initials": "D", "unit": "Unit-5", "description": "" }, "geometry": { "type": "Point", "coordinates": [ -97.236645, 54.483008 ] } }
]
}
